
# Worst residual: 18.34 km
# MJD 59262.000000 (2021 Feb 17  0:00)
ZTF0KbQ
1 88865U 00000ABI 21048.49919926  .00000000  00000-0  00000-0 0 11464
2 88865 019.9235 078.3801 7448547 250.7647 196.1017 01.01468661    01

# Worst residual: 18.05 km
# MJD 59263.000000 (2021 Feb 18  0:00)
ZTF0KbQ
1 88865U 00000ABI 21049.49919926  .00000000  00000-0  00000-0 0 11465
2 88865 019.9149 078.2217 7447208 251.1558 201.3623 01.01469756    02

# Worst residual: 18.42 km
# MJD 59264.000000 (2021 Feb 19  0:00)
ZTF0KbQ
1 88865U 00000ABI 21050.49919926  .00000000  00000-0  00000-0 0 11467
2 88865 019.9057 078.0618 7445801 251.5478 206.6208 01.01471758    07

# Worst residual: 18.03 km
# MJD 59265.000000 (2021 Feb 20  0:00)
ZTF0KbQ
1 88865U 00000ABI 21051.49919926  .00000000  00000-0  00000-0 0 11468
2 88865 019.8969 077.8997 7444066 251.9389 211.8881 01.01472575    05

# Worst residual: 17.66 km
# MJD 59266.000000 (2021 Feb 21  0:00)
ZTF0KbQ
1 88865U 00000ABI 21052.49919926  .00000000  00000-0  00000-0 0 11469
2 88865 019.8878 077.7296 7442473 252.3366 217.1573 01.01476320    04

# Worst residual: 17.89 km
# MJD 59267.000000 (2021 Feb 22  0:00)
ZTF0KbQ
1 88865U 00000ABI 21053.49919926  .00000000  00000-0  00000-0 0 11460
2 88865 019.8787 077.5546 7440996 252.7389 222.4255 01.01480410    07

# Worst residual: 22.54 km
# MJD 59268.000000 (2021 Feb 23  0:00)
ZTF0KbQ
1 88865U 00000ABI 21054.49919926  .00000000  00000-0  00000-0 0 11461
2 88865 019.8696 077.3768 7439508 253.1456 227.6886 01.01483563    06

# Worst residual: 26.92 km
# MJD 59269.000000 (2021 Feb 24  0:00)
ZTF0KbQ
1 88865U 00000ABI 21055.49919926  .00000000  00000-0  00000-0 0 11462
2 88865 019.8603 077.1960 7437841 253.5582 232.9432 01.01485338    06

# Worst residual: 30.85 km
# MJD 59270.000000 (2021 Feb 25  0:00)
ZTF0KbQ
1 88865U 00000ABI 21056.49919926  .00000000  00000-0  00000-0 0 11463
2 88865 019.8505 077.0096 7435731 253.9801 238.1876 01.01485936    04

# Worst residual: 34.27 km
# MJD 59271.000000 (2021 Feb 26  0:00)
ZTF0KbQ
1 88865U 00000ABI 21057.49919926  .00000000  00000-0  00000-0 0 11464
2 88865 019.8398 076.8140 7432864 254.4137 243.4242 01.01486156    04

# Worst residual: 37.04 km
# MJD 59272.000000 (2021 Feb 27  0:00)
ZTF0KbQ
1 88865U 00000ABI 21058.49919926  .00000000  00000-0  00000-0 0 11465
2 88865 019.8285 076.6077 7429045 254.8576 248.6606 01.01487201    07

# Worst residual: 36.20 km
# MJD 59273.000000 (2021 Feb 28  0:00)
ZTF0KbQ
1 88865U 00000ABI 21059.49919926  .00000000  00000-0  00000-0 0 11466
2 88865 019.8153 076.3925 7424727 255.3056 253.9088 01.01487993    02

# Worst residual: 42.35 km
# MJD 59274.000000 (2021 Mar  1  0:00)
ZTF0KbQ
1 88865U 00000ABI 21060.49919926  .00000000  00000-0  00000-0 0 11468
2 88865 019.8060 076.1684 7419683 255.7574 259.1645 01.01496905    03

# Worst residual: 47.37 km
# MJD 59275.000000 (2021 Mar  2  0:00)
ZTF0KbQ
1 88865U 00000ABI 21061.49919926  .00000000  00000-0  00000-0 0 11469
2 88865 019.7951 075.9365 7414812 256.2129 264.4301 01.01504010    00

# Worst residual: 52.00 km
# MJD 59276.000000 (2021 Mar  3  0:00)
ZTF0KbQ
1 88865U 00000ABI 21062.49919926  .00000000  00000-0  00000-0 0 11460
2 88865 019.7853 075.7029 7410639 256.6672 269.7006 01.01511139    06

# Worst residual: 54.97 km
# MJD 59277.000000 (2021 Mar  4  0:00)
ZTF0KbQ
1 88865U 00000ABI 21063.49919926  .00000000  00000-0  00000-0 0 11461
2 88865 019.7766 075.5057 7406465 257.0893 274.9666 01.01518215    02

# Worst residual: 56.33 km
# MJD 59278.000000 (2021 Mar  5  0:00)
ZTF0KbQ
1 88865U 00000ABI 21064.49919926  .00000000  00000-0  00000-0 0 11462
2 88865 019.7677 075.2749 7401834 257.5448 280.2279 01.01522226    01

# Worst residual: 57.41 km
# MJD 59279.000000 (2021 Mar  6  0:00)
ZTF0KbQ
1 88865U 00000ABI 21065.49919926  .00000000  00000-0  00000-0 0 11463
2 88865 019.7581 075.0631 7396397 257.9816 285.4834 01.01532789    02

# Worst residual: 58.04 km
# MJD 59280.000000 (2021 Mar  7  0:00)
ZTF0KbQ
1 88865U 00000ABI 21066.49919926  .00000000  00000-0  00000-0 0 11464
2 88865 019.7486 074.8251 7390795 258.4442 290.7496 01.01533860    02

# Worst residual: 57.85 km
# MJD 59281.000000 (2021 Mar  8  0:00)
ZTF0KbQ
1 88865U 00000ABI 21067.49919926  .00000000  00000-0  00000-0 0 11465
2 88865 019.7356 074.5985 7384676 258.8946 296.0234 01.01539128    05

# Worst residual: 58.35 km
# MJD 59282.000000 (2021 Mar  9  0:00)
ZTF0KbQ
1 88865U 00000ABI 21068.49919926  .00000000  00000-0  00000-0 0 11466
2 88865 019.7281 074.3372 7377745 259.3721 301.3051 01.01546987    04

# Worst residual: 58.11 km
# MJD 59283.000000 (2021 Mar 10  0:00)
ZTF0KbQ
1 88865U 00000ABI 21069.49919926  .00000000  00000-0  00000-0 0 11467
2 88865 019.7201 074.0985 7371462 259.8266 306.5915 01.01551710    08

# Worst residual: 56.86 km
# MJD 59284.000000 (2021 Mar 11  0:00)
ZTF0KbQ
1 88865U 00000ABI 21070.49919926  .00000000  00000-0  00000-0 0 11469
2 88865 019.7116 073.8535 7364629 260.2862 311.8842 01.01559152    02

# Worst residual: 54.18 km
# MJD 59285.000000 (2021 Mar 12  0:00)
ZTF0KbQ
1 88865U 00000ABI 21071.49919926  .00000000  00000-0  00000-0 0 11460
2 88865 019.7030 073.5982 7357567 260.7575 317.1785 01.01563704    02

# Worst residual: 48.05 km
# MJD 59286.000000 (2021 Mar 13  0:00)
ZTF0KbQ
1 88865U 00000ABI 21072.49919926  .00000000  00000-0  00000-0 0 11461
2 88865 019.6978 073.3694 7350635 261.2016 322.4713 01.01580001    04

# Worst residual: 49.30 km
# MJD 59287.000000 (2021 Mar 14  0:00)
ZTF0KbQ
1 88865U 00000ABI 21073.49919926  .00000000  00000-0  00000-0 0 11462
2 88865 019.6884 073.1153 7342574 261.6671 327.7707 01.01583224    03

# Worst residual: 47.02 km
# MJD 59288.000000 (2021 Mar 15  0:00)
ZTF0KbQ
1 88865U 00000ABI 21074.49919926  .00000000  00000-0  00000-0 0 11463
2 88865 019.6811 072.8632 7334384 262.1311 333.0737 01.01590840    03

# Worst residual: 44.78 km
# MJD 59289.000000 (2021 Mar 16  0:00)
ZTF0KbQ
1 88865U 00000ABI 21075.49919926  .00000000  00000-0  00000-0 0 11464
2 88865 019.6741 072.6063 7325822 262.5977 338.3830 01.01598341    06

# Worst residual: 42.25 km
# MJD 59290.000000 (2021 Mar 17  0:00)
ZTF0KbQ
1 88865U 00000ABI 21076.49919926  .00000000  00000-0  00000-0 0 11465
2 88865 019.6676 072.3472 7317287 263.0654 343.6990 01.01602476    09

# Worst residual: 44.98 km
# MJD 59291.000000 (2021 Mar 18  0:00)
ZTF0KbQ
1 88865U 00000ABI 21077.49919926  .00000000  00000-0  00000-0 0 11466
2 88865 019.6586 072.0753 7307649 263.5449 349.0180 01.01614614    04

# Worst residual: 44.79 km
# MJD 59292.000000 (2021 Mar 19  0:00)
ZTF0KbQ
1 88865U 00000ABI 21078.49919926  .00000000  00000-0  00000-0 0 11467
2 88865 019.6565 071.8132 7298273 264.0035 354.3499 01.01615676    09

# Worst residual: 41.08 km
# MJD 59293.000000 (2021 Mar 20  0:00)
ZTF0KbQ
1 88865U 00000ABI 21079.49919926  .00000000  00000-0  00000-0 0 11468
2 88865 019.6521 071.5369 7288389 264.4831 359.6794 01.01617483    09
